CCSDS_OEM_VERS = 2.0
CREATION_DATE  = 2025-04-01T02:04:40.184
ORIGINATOR     = NASA/JSC/FOD/TOPO

META_START
OBJECT_NAME          = ISS
OBJECT_ID            = 1998-067-A
CENTER_NAME          = Earth
REF_FRAME            = EME2000
TIME_SYSTEM          = UTC
START_TIME           = 2025-03-31T12:00:00.000
USEABLE_START_TIME   = 2025-03-31T12:00:00.000
USEABLE_STOP_TIME    = 2025-04-15T12:00:00.000
STOP_TIME            = 2025-04-15T12:00:00.000
META_STOP

COMMENT Source: This file was produced by the TOPO office within FOD at JSC.
COMMENT Units are in kg and m^2
COMMENT MASS=454190.00
COMMENT DRAG_AREA=1526.60
COMMENT DRAG_COEFF=1.70
COMMENT SOLAR_RAD_AREA=0.00
COMMENT SOLAR_RAD_COEFF=0.00
COMMENT Orbits start at the ascending node epoch
COMMENT ISS first asc. node: EPOCH = 2025-03-31T13:19:45.961 $ ORBIT = 2312 $ LAN(DEG) = -57.59690
COMMENT ISS last asc. node : EPOCH = 2025-04-15T10:52:39.334 $ ORBIT = 2543 $ LAN(DEG) = -109.26967
COMMENT Begin sequence of events
COMMENT TRAJECTORY EVENT SUMMARY:
COMMENT 
COMMENT |       EVENT        |       TIG        | ORB |   DV    |   HA    |   HP    |
COMMENT |                    |       GMT        |     |   M/S   |   KM    |   KM    |
COMMENT |                    |                  |     |  (F/S)  |  (NM)   |  (NM)   |
COMMENT =============================================================================
COMMENT  GMT092 ISS Reboost P  092:09:52:00.000             2.1     423.4     407.0
COMMENT                                                    (6.9)   (228.6)   (219.8)
COMMENT 
COMMENT  73S Launch            098:05:47:15.000             0.0     425.8     410.5
COMMENT                                                    (0.0)   (229.9)   (221.6)
COMMENT 
COMMENT  73S Dock              098:09:03:56.000             0.0     425.7     410.4
COMMENT                                                    (0.0)   (229.9)   (221.6)
COMMENT 
COMMENT =============================================================================
COMMENT End sequence of events
2025-04-05T03:53:15.521 -2587.642299986790 5929.627299134120 2087.110011719960 -5.30370354753918 -0.36237748653096 -5.51416477146857
2025-04-05T03:57:15.521 -3751.027228194790 5628.210009877820 703.756408561677 -4.33207985812403 -2.13399943746951 -5.94321913984655
2025-04-05T04:01:15.521 -4641.848386710310 4917.819094612020 -730.893912548100 -3.04632988813168 -3.74961950796637 -5.93908781382446
2025-04-05T04:05:15.521 -5195.634940172770 3850.338339401470 -2112.341239443040 -1.54072459538044 -5.09161120149525 -5.50271933864558
2025-04-05T04:09:15.521 -5372.588308695770 2503.574975717680 -3340.163142666440 0.07473698888865 -6.06292040686899 -4.66687402364064
2025-04-05T04:13:15.521 -5160.358385248070 975.432981139470 -4325.354356629980 1.68278332534413 -6.59410563850381 -3.49324947576578
2025-04-05T04:17:15.521 -4574.740257060300 -623.309497976182 -4996.698757165160 3.16754946584019 -6.64785678547774 -2.06740737236868
2025-04-05T04:21:15.521 -3658.355080345680 -2176.996398256230 -5305.748186221550 4.42262008727639 -6.22097845983008 -0.49238322701031
2025-04-05T04:25:15.521 -2477.505602658060 -3573.304081183510 -5230.157637750940 5.35815409711502 -5.34422132017346 1.11861880230373
2025-04-05T04:29:15.521 -1117.469706097780 -4711.147455627340 -4775.205735444810 5.90673719523618 -4.07995415237335 2.64985423969733
2025-04-05T04:33:15.521 323.464329968051 -5507.826739651470 -3973.496126560890 6.02803574749996 -2.51822855416954 3.99066788896063
2025-04-05T04:37:15.521 1740.911224805280 -5905.018615246910 -2882.795554211050 5.71194330129907 -0.77101244251000 5.04326742717661
2025-04-05T04:41:15.521 3031.842995380010 -5873.178983395980 -1582.080009915190 4.97996292726066 1.03519288042928 5.72985548563894
2025-04-05T04:45:15.521 4102.133074952040 -5413.974025380040 -165.942575694034 3.88439791500581 2.76844721764142 5.99900456719329
2025-04-05T04:49:15.521 4873.579368120210 -4560.389095886370 1262.302431062610 2.50487025917872 4.30138140043311 5.83000741396531
2025-04-05T04:53:15.521 5289.803906938380 -3374.427662110090 2598.280693867570 0.94246687395201 5.52114287736827 5.23483610317521
2025-04-05T04:57:15.521 5320.496741979670 -1942.535432682930 3744.362073601050 -0.68810897274942 6.33823126834217 4.25733845361374
2025-04-05T05:01:15.521 4963.621045553930 -369.133547091801 4616.921230775340 -2.26746436142116 6.69325364056912 2.96958396526363
2025-04-05T05:05:15.521 4245.441590042570 1231.151151650560 5152.467642975800 -3.68064002384421 6.56101888660420 1.46614609661424
2025-04-05T05:09:15.521 3218.447355332670 2741.904319588000 5312.170656479950 -4.82530995568515 5.95178956511806 -0.14330729311542
2025-04-05T05:13:15.521 1957.455777570260 4053.328641952640 5084.563099820450 -5.61879781884415 4.91009019235261 -1.74175359856853
2025-04-05T05:17:15.521 554.183368554583 5070.133282542510 4486.324609186260 -6.00378962885688 3.51158094564745 -3.21306286200979
2025-04-05T05:21:15.521 -889.368688757269 5718.407984782280 3561.065045574960 -5.95240588310447 1.85770874802820 -4.45027907417188
2025-04-05T05:25:15.521 -2268.268737483510 5950.989265186730 2376.198288724100 -5.46830010652620 0.06862927827738 -5.36318554817218
2025-04-05T05:29:15.521 -3482.279502865890 5750.966474554560 1018.098634319630 -4.58676615023370 -1.72522883666336 -5.88503300431063
2025-04-05T05:33:15.521 -4443.224212050040 5132.999432227800 -414.210050372763 -3.37240474440418 -3.39289940416233 -5.97785369883670
2025-04-05T05:37:15.521 -5081.488012023060 4142.244679101060 -1816.364126221070 -1.91431029453558 -4.81282796134437 -5.63542006694180
2025-04-05T05:41:15.521 -5351.101403700720 2850.960650671530 -3086.383969620090 -0.31913119628790 -5.88215507163637 -4.88363897222988
2025-04-05T05:45:15.521 -5232.979757449650 1353.077289342830 -4132.146357128460 1.29716591588147 -6.52419971365282 -3.77814767464697
2025-04-05T05:49:15.521 -4736.125817532620 -242.753710546116 -4878.011400252510 2.81791787199627 -6.69361645199767 -2.39974786274477
2025-04-05T05:53:15.521 -3896.790526104020 -1821.045643783770 -5270.141158490800 4.13403056154048 -6.37901814654102 -0.84819192698221
2025-04-05T05:57:15.521 -2775.754468817650 -3267.696946543650 -5280.207799569820 5.15130728499661 -5.60319253129776 0.76491291443494
2025-04-05T06:01:15.521 -1453.990372512940 -4478.023940687260 -4907.341619143590 5.79661641209005 -4.42140620750597 2.32365539037393
2025-04-05T06:05:15.521 -26.984272416218 -5364.159174148380 -4178.222523687850 6.02284102733709 -2.91775180236923 3.71564672571554
2025-04-05T06:09:15.521 1401.953299971260 -5861.361241394380 -3145.327149326460 5.81237508744556 -1.19985419658769 4.83956478493868
2025-04-05T06:13:15.521 2729.043033978610 -5932.853857975620 -1883.367214334680 5.17904666188615 0.60821663905684 5.61262475895286
2025-04-05T06:17:15.521 3857.584097478890 -5572.754765639780 -484.037106975614 4.16777712910602 2.37463252936640 5.97706765959593
2025-04-05T06:21:15.521 4705.144109895730 -4806.774807191700 950.627896824808 2.85187630125289 3.96966957602074 5.90513346067592
2025-04-05T06:25:15.521 5209.775327111620 -3690.472358081280 2315.806992238740 1.32763800382468 5.27594034259161 5.40154085973709
2025-04-05T06:29:15.521 5334.677399348240 -2305.182206423480 3511.716685720980 -0.29303141326020 6.19744515998429 4.50329975530734
2025-04-05T06:33:15.521 5070.913611922660 -751.943274636650 4451.057740476450 -1.89135497102284 6.66701432710182 3.27669637565953
2025-04-05T06:37:15.521 4437.967294255510 856.046342261147 5065.432267924000 -3.35078822322212 6.65104302000290 1.81191445683103
2025-04-05T06:41:15.521 3482.157108231140 2401.769939729570 5310.260760189360 -4.56555483527364 6.15140162584046 0.21598548088397
2025-04-05T06:45:15.521 2273.156904648000 3772.878920416580 5167.896862328890 -5.44793088327673 5.20482654353692 -1.39502475419893
2025-04-05T06:49:15.521 898.916019852769 4869.755154499410 4648.817535225370 -5.93419214583517 3.88003208200768 -2.90416500937748
2025-04-05T06:53:15.521 -540.662177690790 5612.668940937860 3790.869294555500 -5.98909115403747 2.27311298596087 -4.20167516128766
2025-04-05T06:57:15.521 -1940.933021796030 5947.584837686010 2656.567016198650 -5.60862152884004 0.50080335827556 -5.19300702842783
2025-04-05T07:01:15.521 -3200.106192754170 5850.141080530780 1328.589257354820 -4.82048368282666 -1.30782125255412 -5.80572917690150
2025-04-05T07:05:15.521 -4226.698872170490 5327.507678820860 -96.234438413344 -3.68238460576527 -3.02072294580536 -5.99514892043239
2025-04-05T07:09:15.521 -4946.280969392370 4417.891685807910 -1514.061653836890 -2.27781401563136 -4.51296361308980 -5.74789743730558
2025-04-05T07:13:15.521 -5306.928922976930 3187.669362086310 -2821.721032222730 -0.70961493198502 -5.67623373854932 -5.08286946727142
2025-04-05T07:17:15.521 -5282.934829864230 1726.390008612790 -3924.297949349180 0.90800947172912 -6.42689567880788 -4.04946176436469
2025-04-05T07:21:15.521 -4876.501908923200 140.117131304297 -4741.995567635030 2.45810698633045 -6.71171647380666 -2.72339983847993
2025-04-05T07:25:15.521 -4117.386325666610 -1456.304080258420 -5215.773485609270 3.82935980275819 -6.51107029950431 -1.20083495065368
2025-04-05T07:29:15.521 -3060.621605055090 -2947.453721191820 -5311.429904970790 4.92361787428850 -5.83974629648828 0.40861206473290
2025-04-05T07:33:15.521 -1782.557512980720 -4225.475828738970 -5021.940201125310 5.66235769304501 -4.74559760607100 1.98935471086995
2025-04-05T07:37:15.521 -375.504374806128 -5197.673741668590 -4367.974337021180 5.99188669585434 -3.30645113081020 3.42748622589786
2025-04-05T07:41:15.521 1058.738044682050 -5793.149070858770 -3396.552174243400 5.88732760135679 -1.62513052848500 4.61861524958154
2025-04-05T07:45:15.521 2416.090344750120 -5968.028172938740 -2177.862474471840 5.35479496620527 0.17720684291589 5.47525270874707
